[{"OBJECT_NAME":"TIANPING 2C","OBJECT_ID":"2022-032D","EPOCH":"2026-03-09T22:24:23.522112","MEAN_MOTION":15.10225163,"ECCENTRICITY":0.00079422,"INCLINATION":97.5961,"RA_OF_ASC_NODE":122.1196,"ARG_OF_PERICENTER":128.8925,"MEAN_ANOMALY":231.3013,"EPHEMERIS_TYPE":0,"CLASSIFICATION_TYPE":"U","NORAD_CAT_ID":52156,"ELEMENT_SET_NO":999,"REV_AT_EPOCH":21586,"BSTAR":0.00036090623,"MEAN_MOTION_DOT":5.841e-5,"MEAN_MOTION_DDOT":0},{"OBJECT_NAME":"STARLINK-3947","OBJECT_ID":"2022-052K","EPOCH":"2026-03-09T21:10:58.864800","MEAN_MOTION":15.08835543,"ECCENTRICITY":0.00013479,"INCLINATION":53.2166,"RA_OF_ASC_NODE":283.2667,"ARG_OF_PERICENTER":92.7035,"MEAN_ANOMALY":267.4112,"EPHEMERIS_TYPE":0,"CLASSIFICATION_TYPE":"U","NORAD_CAT_ID":52607,"ELEMENT_SET_NO":999,"REV_AT_EPOCH":21080,"BSTAR":5.0277452e-5,"MEAN_MOTION_DOT":5.12e-6,"MEAN_MOTION_DDOT":0}]
